{
  "type": "FeatureCollection",
  "features": [
    {
      "type": "Feature",
      "properties": {},
      "geometry": {
        "coordinates": [
          [
            [
              8.391501197815757,
              49.0217359665146
            ],
            [
              8.409777891702817,
              49.04779439013424
            ],
            [
              8.40698588736177,
              49.0676855147631
            ],
            [
              8.364301241723041,
              49.060720688619654
            ],
            [
              8.354279497696353,
              49.048641119326476
            ],
            [
              8.317072846277114,
              49.04539192933433
            ],
            [
              8.294366217816105,
              49.0159955763846
            ],
            [
              8.299683579473111,
              48.97775599128943
            ],
            [
              8.329168264362778,
              48.96984637870591
            ],
            [
              8.347973525806083,
              48.98185032408114
            ],
            [
              8.351004020447135,
              48.96234602085511
            ],
            [
              8.391253218527993,
              48.94986151585579
            ],
            [
              8.454208164170808,
              48.950854346704205
            ],
            [
              8.499183043676368,
              48.978213410835025
            ],
            [
              8.50693795148672,
              49.014361783465546
            ],
            [
              8.484931920444637,
              49.03205869980911
            ],
            [
              8.446458689333525,
              49.04411499082812
            ],
            [
              8.40724248591522,
              49.0370376184745
            ],
            [
              8.391501197815757,
              49.0217359665146
            ]
          ]
        ],
        "type": "Polygon"
      }
    }
  ]
}
